SBSS (USA 216)          
1 37168U 10048A   26068.88624904  .00004946  00000+0  24191-3 0  9993
2 37168  97.7474 312.3885 0082264 184.8326 306.5835 15.15724210837421
STARLINK-34237          
1 64194U 25113AA  26068.47486089  .00032189  00000+0  10943-2 0  9995
2 64194  53.1588  92.0210 0001188  74.7950 285.3182 15.30196237 44992
