[{"OBJECT_NAME":"SBSS (USA 216)","OBJECT_ID":"2010-048A","EPOCH":"2026-03-09T21:16:11.917056","MEAN_MOTION":15.1572421,"ECCENTRICITY":0.0082264,"INCLINATION":97.7474,"RA_OF_ASC_NODE":312.3885,"ARG_OF_PERICENTER":184.8326,"MEAN_ANOMALY":306.5835,"EPHEMERIS_TYPE":0,"CLASSIFICATION_TYPE":"U","NORAD_CAT_ID":37168,"ELEMENT_SET_NO":999,"REV_AT_EPOCH":83742,"BSTAR":0.00024191,"MEAN_MOTION_DOT":4.946e-5,"MEAN_MOTION_DDOT":0},{"OBJECT_NAME":"STARLINK-34237","OBJECT_ID":"2025-113AA","EPOCH":"2026-03-09T11:23:47.980896","MEAN_MOTION":15.30196237,"ECCENTRICITY":0.00011886,"INCLINATION":53.1588,"RA_OF_ASC_NODE":92.021,"ARG_OF_PERICENTER":74.795,"MEAN_ANOMALY":285.3182,"EPHEMERIS_TYPE":0,"CLASSIFICATION_TYPE":"U","NORAD_CAT_ID":64194,"ELEMENT_SET_NO":999,"REV_AT_EPOCH":4499,"BSTAR":0.0010943383,"MEAN_MOTION_DOT":0.00032189,"MEAN_MOTION_DDOT":0}]
